[{"OBJECT_NAME":"STARLINK-36093","OBJECT_ID":"2025-293N","EPOCH":"2026-03-09T18:58:54.198912","MEAN_MOTION":14.98318168,"ECCENTRICITY":0.0002859,"INCLINATION":70.0017,"RA_OF_ASC_NODE":94.1738,"ARG_OF_PERICENTER":269.9344,"MEAN_ANOMALY":90.1487,"EPHEMERIS_TYPE":0,"CLASSIFICATION_TYPE":"U","NORAD_CAT_ID":67015,"ELEMENT_SET_NO":999,"REV_AT_EPOCH":1490,"BSTAR":-0.00042485433,"MEAN_MOTION_DOT":-5.157e-5,"MEAN_MOTION_DDOT":0},{"OBJECT_NAME":"CZ-6A DEB","OBJECT_ID":"2024-140RN","EPOCH":"2026-03-09T09:36:23.350464","MEAN_MOTION":14.99974811,"ECCENTRICITY":0.0047719,"INCLINATION":88.1445,"RA_OF_ASC_NODE":217.6461,"ARG_OF_PERICENTER":172.1525,"MEAN_ANOMALY":188.0467,"EPHEMERIS_TYPE":0,"CLASSIFICATION_TYPE":"U","NORAD_CAT_ID":61168,"ELEMENT_SET_NO":999,"REV_AT_EPOCH":8322,"BSTAR":0.0063622011,"MEAN_MOTION_DOT":0.00081758,"MEAN_MOTION_DDOT":0}]
